IDEFIX & ARIANE 42P R/B 
1 27422U 02021B   23322.55975461  .00000326  00000+0  14324-3 0  9993
2 27422  98.5065 259.7637 0012660 142.5254 217.6813 14.29859992123629
AQUA                    
1 27424U 02022A   23322.59892543  .00001025  00000+0  23036-3 0  9996
2 27424  98.3049 266.6346 0002022  69.9146  41.0449 14.58566970145821
CZ-4B R/B               
1 27432U 02024C   23322.33714351  .00000048  00000+0  48800-4 0  9990
2 27432  99.0062 358.3211 0049403 250.1751 119.7558 14.14256984110169
MIDORI II (ADEOS-II)    
1 27597U 02056A   23322.46628637  .00000383  00000+0  17194-3 0  9995
2 27597  98.6665 265.3663 0000685  29.5557 330.5662 14.28087356 90036
H-2A R/B                
1 27601U 02056E   23322.55111537  .00000302  00000+0  12275-3 0  9993
2 27601  98.2080 305.4568 0072082 151.8279 319.2660 14.32539819 93484
CZ-4B R/B               
1 28059U 03049C   23322.58696731  .00000496  00000+0  12941-3 0  9995
2 28059  98.5814 274.4312 0048212 282.4503  77.1300 14.53417446 64204
CZ-2C R/B               
1 28222U 04012C   23322.49576781  .00006477  00000+0  29293-3 0  9993
2 28222  97.8090 322.0616 0040013  67.5020 293.0443 15.20569193 74871
SL-16 R/B               
1 28353U 04021B   23322.06569096  .00000324  00000+0  19396-3 0  9990
2 28353  71.0002 200.4790 0006979 246.6048 113.4341 14.14362921  3683
CZ-4B R/B               
1 28415U 04035C   23322.52406151  .00003633  00000+0  20591-3 0  9992
2 28415  97.4517 356.0481 0046424  37.8461 322.6018 15.12700159 51932
CZ-2C R/B               
1 28480U 04046B   23322.43598010  .00000198  00000+0  89162-4 0  9995
2 28480  98.1348 276.2106 0142102 125.3604 236.0954 14.26157841988409
ARIANE 5 R/B            
1 28499U 04049H   23322.62176394  .00001463  00000+0  18046-3 0  9994
2 28499  98.1566  91.2290 0089048 196.3299 174.7883 14.81769023 20933
CZ-2D R/B               
1 28738U 05024B   23322.49144336  .00005600  00000+0  25561-3 0  9997
2 28738  97.3601 320.0803 0010286 157.7628 202.4055 15.20954311 10432
SUZAKU (ASTRO-EII)      
1 28773U 05025A   23322.49496665  .00013120  00000+0  38288-3 0  9998
2 28773  31.3891 122.4232 0002301 273.6622  86.3767 15.34078361 14341
ALOS (DAICHI)           
1 28931U 06002A   23322.46053288  .00001250  00000+0  24334-3 0  9995
2 28931  98.0096 275.5841 0002399  90.8938 269.2540 14.64756514949978
H-2A R/B                
1 28932U 06002B   23322.51763583  .00003654  00000+0  29522-3 0  9992
2 28932  98.2286  37.6431 0079105 182.0312 178.0600 14.98076946967619
RESURS-DK 1             
1 29228U 06021A   23322.21305912  .00002100  00000+0  15150-3 0  9994
2 29228  69.9355 244.7525 0006245 313.8996  46.1650 15.05782171960393
GENESIS 1               
1 29252U 06029A   23322.54279814  .00007437  00000+0  25670-3 0  9992
2 29252  64.5170 155.8769 0005635 222.3651 137.7043 15.30686551958115
CZ-4B R/B               
1 29507U 06046C   23322.53167884  .00002275  00000+0  16035-3 0  9996
2 29507  97.6706 354.8721 0040682 277.8796  81.7814 15.05384623932859
CZ-2C R/B               
1 31114U 07010B   23322.40387316  .00000153  00000+0  89979-4 0  9996
2 31114  98.3020 106.2523 0058729 224.3718 135.2746 14.19657155860186
COSMO-SKYMED 1          
1 31598U 07023A   23322.55805421  .00000611  00000+0  83341-4 0  9990
2 31598  97.8861 143.8115 0001560  86.4935 273.6456 14.82147658889775
GENESIS 2               
1 31789U 07028A   23322.37895418  .00007103  00000+0  24819-3 0  9999
2 31789  64.4912 201.1532 0047001 240.4449 119.1990 15.29328266904950
COSMOS 2428             
1 31792U 07029A   23322.34157395  .00000345  00000+0  21231-3 0  9992
2 31792  70.9344 171.2254 0009647 334.0954  25.9683 14.12609685845122
SL-16 R/B               
1 31793U 07029B   23322.51931542 -.00000123  00000+0 -39191-4 0  9997
2 31793  70.9735 142.3419 0002567 262.7409 162.3093 14.14572067846267
KORONAS-FOTON           
1 33504U 09003A   23322.36285814  .00004468  00000+0  19057-3 0  9992
2 33504  82.4404  56.5084 0015531 264.1082  95.8384 15.22560525816752
CZ-2C R/B               
1 37731U 11030B   23322.51230091  .00001101  00000+0  16061-3 0  9998
2 37731  97.7358 289.6508 0056447 205.3230 269.2245 14.76672575665604
H-2A R/B                
1 38341U 12025E   23322.42010727  .00001435  00000+0  16347-3 0  9990
2 38341  98.4347 215.7682 0052318 172.2940 187.9090 14.86998389622707
CUSAT 2 & FALCON 9 R/B  
1 39271U 13055G   23322.48295449  .00030659 -27106-6  47856-3 0  9992
2 39271  80.9435 330.0428 0388494 284.1949  71.6410 14.98676549533443
SHIJIAN-16 (SJ-16)      
1 39358U 13057A   23322.56395351  .00001019  00000+0  11434-3 0  9999
2 39358  74.9728 334.0119 0019071 344.7209  15.3398 14.87776882546063
CZ-2C R/B               
1 39364U 13059B   23322.58366931  .00026583  00000+0  42078-3 0  9993
2 39364  97.0813   6.5940 0025012 247.8421 112.0178 15.53045052560064
SL-4 R/B                
1 39679U 14021B   23322.50659171  .00004960  00000+0  21235-3 0  9992
2 39679  51.6127  48.1266 0147246 331.4926  27.8051 15.15370062527622
ALOS-2                  
1 39766U 14029A   23322.55463738  .00002158  00000+0  29578-3 0  9999
2 39766  97.9234  57.2367 0001399  98.8549 261.2821 14.79472382512357
SL-27 R/B               
1 40354U 14084B   23322.57550575  .00018212  00000+0  22974-3 0  9994
2 40354  74.7310 305.3744 0025866 228.6606 131.2391 15.59102482501017
YAOGAN-29               
1 41038U 15069A   23322.58064994  .00000492  00000+0  69958-4 0  9999
2 41038  98.0626 330.7348 0001811 163.5368 196.5904 14.81348706431138
ASTRO-H (HITOMI)        
1 41337U 16012A   23322.53131824  .00002152  00000+0  15331-3 0  9992
2 41337  31.0048 359.0606 0011622 191.1430 168.8950 15.02092164425150
HXMT (HUIYAN)           
1 42758U 17034A   23322.58440839  .00005065  00000+0  28474-3 0  9997
2 42758  43.0165   6.6183 0004335 276.2538  83.7815 15.14185225354748
CZ-2C R/B               
1 43521U 18054D   23322.55324424  .00006728  00000+0  27289-3 0  9997
2 43521  35.1516   8.9218 0064076  23.2150 337.1441 15.22059619298543
SAOCOM 1A               
1 43641U 18076A   23322.56650162  .00000536  00000+0  73825-4 0  9995
2 43641  97.8860 146.8427 0001418  89.0819 271.0556 14.82160341276628
H-2A R/B                
1 43682U 18084L   23322.40907889  .00004296  00000+0  25717-3 0  9996
2 43682  98.8777  10.9403 0048407 355.2840   4.7922 15.10744494277489
SAOCOM 1B               
1 46265U 20059A   23322.53014995  .00000274  00000+0  41041-4 0  9993
2 46265  97.8863 145.8902 0001383  88.9570 271.1802 14.82145424174005
CSS (TIANHE)            
1 48274U 21035A   23322.59468668  .00027000  00000+0  30289-3 0  9993
2 48274  41.4720 295.7880 0005136 176.3867 183.7011 15.62022775145971
COSMOS 2550             
1 48865U 21056A   23322.55718091  .00005175  00000+0  16297-3 0  9998
2 48865  67.1434  68.5446 0008411 269.6237  90.3954 15.33838857134313
2022-019U               
1 51842U 22019U   23322.52975942  .00029546  00000+0  62962-3 0  9992
2 51842  97.5220  53.2735 0045108 149.1501 211.2412 15.43765784 96199
CZ-2C R/B               
1 52794U 22058K   23322.38427937  .00005997  00000+0  27721-3 0  9990
2 52794  50.1684 196.3544 0088663 359.2254   0.8550 15.18085735 80892
CZ-2C R/B               
1 53131U 22082D   23322.51878761  .00035760  00000+0  41078-3 0  9995
2 53131  97.3361 341.5632 0027873  32.9639 327.3350 15.61474091 75752
XRISM                   
1 57800U 23137A   23322.59498011  .00003533  00000+0  28065-3 0  9992
2 57800  31.0042 276.6629 0010506 272.9203  87.0229 14.98632359 10815
